{"type": "FeatureCollection", "features": [ {"type": "Feature", "properties": {"norad_id": 66564, "name": "STARLINK-35358", "group": "last-30-days", "lat": 38.93207280198157, "lon": 94.9850701938321, "alt_km": 441.3975162343613, "timestamp": "2025-12-27T11:23:18.576806+00:00", "meta": {"OBJECT_NAME": "STARLINK-35358", "OBJECT_ID": "2025-268H", "EPOCH": "2025-12-27T04:00:01.998720", "MEAN_MOTION": 15.41217538, "ECCENTRICITY": 0.000129, "INCLINATION": 43.0002, "RA_OF_ASC_NODE": 36.6594, "ARG_OF_PERICENTER": 279.0374, "MEAN_ANOMALY": 238.9468, "EPHEMERIS_TYPE": 0, "CLASSIFICATION_TYPE": "U", "NORAD_CAT_ID": 66564, "ELEMENT_SET_NO": 999, "REV_AT_EPOCH": 605, "BSTAR": -0.054201, "MEAN_MOTION_DOT": -0.02045786, "MEAN_MOTION_DDOT": 0}, "tle": {"line1": "1 66564U 25268H   25361.16668980 -.02045786  00000+0 -54201-1 0  9997", "line2": "2 66564  43.0002  36.6594 0001290 279.0374 238.9468 15.41217538  6053"}}, "geometry": {"type": "Point", "coordinates": [94.9850701938321, 38.93207280198157]}}, {"type": "Feature", "properties": {"norad_id": 66565, "name": "STARLINK-35893", "group": "last-30-days", "lat": 42.16607618631921, "lon": 111.23256851596427, "alt_km": 438.4760257695816, "timestamp": "2025-12-27T11:23:18.576819+00:00", "meta": {"OBJECT_NAME": "STARLINK-35893", "OBJECT_ID": "2025-268J", "EPOCH": "2025-12-27T04:00:01.998720", "MEAN_MOTION": 15.42048725, "ECCENTRICITY": 0.0001221, "INCLINATION": 43.0007, "RA_OF_ASC_NODE": 36.6299, "ARG_OF_PERICENTER": 280.2591, "MEAN_ANOMALY": 249.547, "EPHEMERIS_TYPE": 0, "CLASSIFICATION_TYPE": "U", "NORAD_CAT_ID": 66565, "ELEMENT_SET_NO": 999, "REV_AT_EPOCH": 605, "BSTAR": -0.052451, "MEAN_MOTION_DOT": -0.02037062, "MEAN_MOTION_DDOT": 0}, "tle": {"line1": "1 66565U 25268J   25361.16668980 -.02037062  00000+0 -52451-1 0  9991", "line2": "2 66565  43.0007  36.6299 0001221 280.2591 249.5470 15.42048725  6052"}}, "geometry": {"type": "Point", "coordinates": [111.23256851596427, 42.16607618631921]}}, {"type": "Feature", "properties": {"norad_id": 66566, "name": "STARLINK-35871", "group": "last-30-days", "lat": 42.96018967638868, "lon": 122.70956429798714, "alt_km": 436.75647237107296, "timestamp": "2025-12-27T11:23:18.576829+00:00", "meta": {"OBJECT_NAME": "STARLINK-35871", "OBJECT_ID": "2025-268K", "EPOCH": "2025-12-27T04:00:01.998720", "MEAN_MOTION": 15.42593122, "ECCENTRICITY": 0.0001002, "INCLINATION": 43.0001, "RA_OF_ASC_NODE": 36.6106, "ARG_OF_PERICENTER": 275.7433, "MEAN_ANOMALY": 261.9642, "EPHEMERIS_TYPE": 0, "CLASSIFICATION_TYPE": "U", "NORAD_CAT_ID": 66566, "ELEMENT_SET_NO": 999, "REV_AT_EPOCH": 605, "BSTAR": -0.052553, "MEAN_MOTION_DOT": -0.02074186, "MEAN_MOTION_DDOT": 0}, "tle": {"line1": "1 66566U 25268K   25361.16668980 -.02074186  00000+0 -52553-1 0  9993", "line2": "2 66566  43.0001  36.6106 0001002 275.7433 261.9642 15.42593122  6050"}}, "geometry": {"type": "Point", "coordinates": [122.70956429798714, 42.96018967638868]}}, {"type": "Feature", "properties": {"norad_id": 66567, "name": "STARLINK-35825", "group": "last-30-days", "lat": 42.51205789855015, "lon": 135.15389039145052, "alt_km": 434.7944480830465, "timestamp": "2025-12-27T11:23:18.576840+00:00", "meta": {"OBJECT_NAME": "STARLINK-35825", "OBJECT_ID": "2025-268L", "EPOCH": "2025-12-27T04:00:01.998720", "MEAN_MOTION": 15.43194033, "ECCENTRICITY": 7.08e-05, "INCLINATION": 43.0003, "RA_OF_ASC_NODE": 36.5892, "ARG_OF_PERICENTER": 280.5919, "MEAN_ANOMALY": 265.5862, "EPHEMERIS_TYPE": 0, "CLASSIFICATION_TYPE": "U", "NORAD_CAT_ID": 66567, "ELEMENT_SET_NO": 999, "REV_AT_EPOCH": 605, "BSTAR": -0.050627, "MEAN_MOTION_DOT": -0.02043151, "MEAN_MOTION_DDOT": 0}, "tle": {"line1": "1 66567U 25268L   25361.16668980 -.02043151  00000+0 -50627-1 0  9992", "line2": "2 66567  43.0003  36.5892 0000708 280.5919 265.5862 15.43194033  6052"}}, "geometry": {"type": "Point", "coordinates": [135.15389039145052, 42.51205789855015]}}, {"type": "Feature", "properties": {"norad_id": 66568, "name": "STARLINK-35803", "group": "last-30-days", "lat": 42.9538463253934, "lon": 122.38781426136066, "alt_km": 428.8621046772969, "timestamp": "2025-12-27T11:23:18.576852+00:00", "meta": {"OBJECT_NAME": "STARLINK-35803", "OBJECT_ID": "2025-268M", "EPOCH": "2025-12-27T04:00:01.998720", "MEAN_MOTION": 15.45057161, "ECCENTRICITY": 0.0001058, "INCLINATION": 43.0002, "RA_OF_ASC_NODE": 36.6173, "ARG_OF_PERICENTER": 280.2621, "MEAN_ANOMALY": 254.3549, "EPHEMERIS_TYPE": 0, "CLASSIFICATION_TYPE": "U", "NORAD_CAT_ID": 66568, "ELEMENT_SET_NO": 999, "REV_AT_EPOCH": 605, "BSTAR": -0.041086, "MEAN_MOTION_DOT": -0.01794309, "MEAN_MOTION_DDOT": 0}, "tle": {"line1": "1 66568U 25268M   25361.16668980 -.01794309  00000+0 -41086-1 0  9999", "line2": "2 66568  43.0002  36.6173 0001058 280.2621 254.3549 15.45057161  6051"}}, "geometry": {"type": "Point", "coordinates": [122.38781426136066, 42.9538463253934]}}, {"type": "Feature", "properties": {"norad_id": 66569, "name": "STARLINK-35835", "group": "last-30-days", "lat": 37.057133206334726, "lon": 160.63059706383484, "alt_km": 431.3749765327875, "timestamp": "2025-12-27T11:23:18.576863+00:00", "meta": {"OBJECT_NAME": "STARLINK-35835", "OBJECT_ID": "2025-268N", "EPOCH": "2025-12-27T04:00:01.998720", "MEAN_MOTION": 15.44660973, "ECCENTRICITY": 9.73e-05, "INCLINATION": 42.9996, "RA_OF_ASC_NODE": 36.5441, "ARG_OF_PERICENTER": 272.2828, "MEAN_ANOMALY": 292.521, "EPHEMERIS_TYPE": 0, "CLASSIFICATION_TYPE": "U", "NORAD_CAT_ID": 66569, "ELEMENT_SET_NO": 999, "REV_AT_EPOCH": 605, "BSTAR": -0.048353, "MEAN_MOTION_DOT": -0.02051139, "MEAN_MOTION_DDOT": 0}, "tle": {"line1": "1 66569U 25268N   25361.16668980 -.02051139  00000+0 -48353-1 0  9992", "line2": "2 66569  42.9996  36.5441 0000973 272.2828 292.5210 15.44660973  6053"}}, "geometry": {"type": "Point", "coordinates": [160.63059706383484, 37.057133206334726]}}, {"type": "Feature", "properties": {"norad_id": 66570, "name": "STARLINK-35834", "group": "last-30-days", "lat": -35.79011229511668, "lon": -93.97648573326947, "alt_km": 482.50703639836775, "timestamp": "2025-12-27T11:23:18.576874+00:00", "meta": {"OBJECT_NAME": "STARLINK-35834", "OBJECT_ID": "2025-268P", "EPOCH": "2025-12-27T04:00:01.998720", "MEAN_MOTION": 15.30139814, "ECCENTRICITY": 0.0001569, "INCLINATION": 43.001, "RA_OF_ASC_NODE": 37.0845, "ARG_OF_PERICENTER": 285.2431, "MEAN_ANOMALY": 56.9908, "EPHEMERIS_TYPE": 0, "CLASSIFICATION_TYPE": "U", "NORAD_CAT_ID": 66570, "ELEMENT_SET_NO": 999, "REV_AT_EPOCH": 605, "BSTAR": -0.087822, "MEAN_MOTION_DOT": -0.02324664, "MEAN_MOTION_DDOT": 0}, "tle": {"line1": "1 66570U 25268P   25361.16668980 -.02324664  00000+0 -87822-1 0  9994", "line2": "2 66570  43.0010  37.0845 0001569 285.2431  56.9908 15.30139814  6050"}}, "geometry": {"type": "Point", "coordinates": [-93.97648573326947, -35.79011229511668]}}, {"type": "Feature", "properties": {"norad_id": 66571, "name": "STARLINK-35836", "group": "last-30-days", "lat": -42.06673956133207, "lon": -69.13176923208508, "alt_km": 480.11177932751616, "timestamp": "2025-12-27T11:23:18.576884+00:00", "meta": {"OBJECT_NAME": "STARLINK-35836", "OBJECT_ID": "2025-268Q", "EPOCH": "2025-12-27T04:00:01.998720", "MEAN_MOTION": 15.30808847, "ECCENTRICITY": 9.39e-05, "INCLINATION": 43.001, "RA_OF_ASC_NODE": 37.039, "ARG_OF_PERICENTER": 247.3343, "MEAN_ANOMALY": 114.3158, "EPHEMERIS_TYPE": 0, "CLASSIFICATION_TYPE": "U", "NORAD_CAT_ID": 66571, "ELEMENT_SET_NO": 999, "REV_AT_EPOCH": 605, "BSTAR": -0.07345, "MEAN_MOTION_DOT": -0.02017508, "MEAN_MOTION_DDOT": 0}, "tle": {"line1": "1 66571U 25268Q   25361.16668980 -.02017508  00000+0 -73450-1 0  9993", "line2": "2 66571  43.0010  37.0390 0000939 247.3343 114.3158 15.30808847  6052"}}, "geometry": {"type": "Point", "coordinates": [-69.13176923208508, -42.06673956133207]}}, {"type": "Feature", "properties": {"norad_id": 66572, "name": "STARLINK-35870", "group": "last-30-days", "lat": -39.31430448846634, "lon": -26.27609675401296, "alt_km": 475.58096193860274, "timestamp": "2025-12-27T11:23:18.576895+00:00", "meta": {"OBJECT_NAME": "STARLINK-35870", "OBJECT_ID": "2025-268R", "EPOCH": "2025-12-27T04:00:01.998720", "MEAN_MOTION": 15.32237826, "ECCENTRICITY": 0.0001414, "INCLINATION": 43.0014, "RA_OF_ASC_NODE": 36.9651, "ARG_OF_PERICENTER": 258.7716, "MEAN_ANOMALY": 133.6567, "EPHEMERIS_TYPE": 0, "CLASSIFICATION_TYPE": "U", "NORAD_CAT_ID": 66572, "ELEMENT_SET_NO": 999, "REV_AT_EPOCH": 605, "BSTAR": -0.070111, "MEAN_MOTION_DOT": -0.02014962, "MEAN_MOTION_DDOT": 0}, "tle": {"line1": "1 66572U 25268R   25361.16668980 -.02014962  00000+0 -70111-1 0  9996", "line2": "2 66572  43.0014  36.9651 0001414 258.7716 133.6567 15.32237826  6057"}}, "geometry": {"type": "Point", "coordinates": [-26.27609675401296, -39.31430448846634]}}, {"type": "Feature", "properties": {"norad_id": 66573, "name": "STARLINK-35650", "group": "last-30-days", "lat": -31.27940947094463, "lon": -5.516774869514957, "alt_km": 472.8268885034877, "timestamp": "2025-12-27T11:23:18.576906+00:00", "meta": {"OBJECT_NAME": "STARLINK-35650", "OBJECT_ID": "2025-268S", "EPOCH": "2025-12-27T04:00:01.998720", "MEAN_MOTION": 15.33089208, "ECCENTRICITY": 0.0001424, "INCLINATION": 43.0011, "RA_OF_ASC_NODE": 36.9215, "ARG_OF_PERICENTER": 264.3449, "MEAN_ANOMALY": 145.8956, "EPHEMERIS_TYPE": 0, "CLASSIFICATION_TYPE": "U", "NORAD_CAT_ID": 66573, "ELEMENT_SET_NO": 999, "REV_AT_EPOCH": 599, "BSTAR": -0.069307, "MEAN_MOTION_DOT": -0.02043423, "MEAN_MOTION_DDOT": 0}, "tle": {"line1": "1 66573U 25268S   25361.16668980 -.02043423  00000+0 -69307-1 0  9996", "line2": "2 66573  43.0011  36.9215 0001424 264.3449 145.8956 15.33089208  5997"}}, "geometry": {"type": "Point", "coordinates": [-5.516774869514957, -31.27940947094463]}}]}